{"type": "FeatureCollection", "features": [ {"type": "Feature", "properties": {"norad_id": 67010, "name": "STARLINK-36189", "group": "last-30-days", "lat": -39.553403122894885, "lon": 122.07162224774362, "alt_km": 352.6426844327025, "timestamp": "2025-12-26T07:29:17.195740+00:00", "meta": {"OBJECT_NAME": "STARLINK-36189", "OBJECT_ID": "2025-293H", "EPOCH": "2025-12-25T22:00:01.999584", "MEAN_MOTION": 15.75149552, "ECCENTRICITY": 0.00032903, "INCLINATION": 69.995, "RA_OF_ASC_NODE": 285.6781, "ARG_OF_PERICENTER": 264.8666, "MEAN_ANOMALY": 237.815, "EPHEMERIS_TYPE": 0, "CLASSIFICATION_TYPE": "U", "NORAD_CAT_ID": 67010, "ELEMENT_SET_NO": 999, "REV_AT_EPOCH": 228, "BSTAR": -0.012724295, "MEAN_MOTION_DOT": -0.01691006, "MEAN_MOTION_DDOT": 0}, "tle": {"line1": "1 67010U 25293H   25359.91668981 -.01691006  00000+0 -12724-1 0  9998", "line2": "2 67010  69.9950 285.6781 0003290 264.8666 237.8150 15.75149552  2285"}}, "geometry": {"type": "Point", "coordinates": [122.07162224774362, -39.553403122894885]}}, {"type": "Feature", "properties": {"norad_id": 67011, "name": "STARLINK-36167", "group": "last-30-days", "lat": -37.364370290213564, "lon": 120.7148332086795, "alt_km": 352.5375025034946, "timestamp": "2025-12-26T07:29:17.195750+00:00", "meta": {"OBJECT_NAME": "STARLINK-36167", "OBJECT_ID": "2025-293J", "EPOCH": "2025-12-25T22:00:01.999584", "MEAN_MOTION": 15.75172463, "ECCENTRICITY": 0.00034785, "INCLINATION": 69.9947, "RA_OF_ASC_NODE": 285.6805, "ARG_OF_PERICENTER": 268.0084, "MEAN_ANOMALY": 232.2079, "EPHEMERIS_TYPE": 0, "CLASSIFICATION_TYPE": "U", "NORAD_CAT_ID": 67011, "ELEMENT_SET_NO": 999, "REV_AT_EPOCH": 222, "BSTAR": -0.012715292, "MEAN_MOTION_DOT": -0.01691625, "MEAN_MOTION_DDOT": 0}, "tle": {"line1": "1 67011U 25293J   25359.91668981 -.01691625  00000+0 -12715-1 0  9996", "line2": "2 67011  69.9947 285.6805 0003478 268.0084 232.2079 15.75172463  2227"}}, "geometry": {"type": "Point", "coordinates": [120.7148332086795, -37.364370290213564]}}, {"type": "Feature", "properties": {"norad_id": 67012, "name": "STARLINK-36175", "group": "last-30-days", "lat": -41.45732455200755, "lon": 123.33197110786205, "alt_km": 352.81826513278065, "timestamp": "2025-12-26T07:29:17.195760+00:00", "meta": {"OBJECT_NAME": "STARLINK-36175", "OBJECT_ID": "2025-293K", "EPOCH": "2025-12-25T22:00:01.999584", "MEAN_MOTION": 15.75135362, "ECCENTRICITY": 0.00034245, "INCLINATION": 69.995, "RA_OF_ASC_NODE": 285.6754, "ARG_OF_PERICENTER": 271.4294, "MEAN_ANOMALY": 233.4085, "EPHEMERIS_TYPE": 0, "CLASSIFICATION_TYPE": "U", "NORAD_CAT_ID": 67012, "ELEMENT_SET_NO": 999, "REV_AT_EPOCH": 222, "BSTAR": -0.012697864, "MEAN_MOTION_DOT": -0.01687087, "MEAN_MOTION_DDOT": 0}, "tle": {"line1": "1 67012U 25293K   25359.91668981 -.01687087  00000+0 -12698-1 0  9994", "line2": "2 67012  69.9950 285.6754 0003424 271.4294 233.4085 15.75135362  2224"}}, "geometry": {"type": "Point", "coordinates": [123.33197110786205, -41.45732455200755]}}, {"type": "Feature", "properties": {"norad_id": 67013, "name": "STARLINK-35856", "group": "last-30-days", "lat": -43.59116532582356, "lon": 124.84824758983629, "alt_km": 352.76206732282753, "timestamp": "2025-12-26T07:29:17.195770+00:00", "meta": {"OBJECT_NAME": "STARLINK-35856", "OBJECT_ID": "2025-293L", "EPOCH": "2025-12-25T22:00:01.999584", "MEAN_MOTION": 15.75112655, "ECCENTRICITY": 0.00034053, "INCLINATION": 69.9947, "RA_OF_ASC_NODE": 285.6719, "ARG_OF_PERICENTER": 265.7287, "MEAN_ANOMALY": 241.5522, "EPHEMERIS_TYPE": 0, "CLASSIFICATION_TYPE": "U", "NORAD_CAT_ID": 67013, "ELEMENT_SET_NO": 999, "REV_AT_EPOCH": 222, "BSTAR": -0.012729635, "MEAN_MOTION_DOT": -0.01689317, "MEAN_MOTION_DDOT": 0}, "tle": {"line1": "1 67013U 25293L   25359.91668981 -.01689317  00000+0 -12730-1 0  9990", "line2": "2 67013  69.9947 285.6719 0003405 265.7287 241.5522 15.75112655  2225"}}, "geometry": {"type": "Point", "coordinates": [124.84824758983629, -43.59116532582356]}}, {"type": "Feature", "properties": {"norad_id": 67014, "name": "STARLINK-36207", "group": "last-30-days", "lat": -45.612601784923626, "lon": 126.40332396082265, "alt_km": 352.841913422415, "timestamp": "2025-12-26T07:29:17.195779+00:00", "meta": {"OBJECT_NAME": "STARLINK-36207", "OBJECT_ID": "2025-293M", "EPOCH": "2025-12-25T22:00:01.999584", "MEAN_MOTION": 15.75095753, "ECCENTRICITY": 0.00034782, "INCLINATION": 69.995, "RA_OF_ASC_NODE": 285.6697, "ARG_OF_PERICENTER": 267.5013, "MEAN_ANOMALY": 242.1151, "EPHEMERIS_TYPE": 0, "CLASSIFICATION_TYPE": "U", "NORAD_CAT_ID": 67014, "ELEMENT_SET_NO": 999, "REV_AT_EPOCH": 228, "BSTAR": -0.012763629, "MEAN_MOTION_DOT": -0.01692267, "MEAN_MOTION_DDOT": 0}, "tle": {"line1": "1 67014U 25293M   25359.91668981 -.01692267  00000+0 -12764-1 0  9996", "line2": "2 67014  69.9950 285.6697 0003478 267.5013 242.1151 15.75095753  2282"}}, "geometry": {"type": "Point", "coordinates": [126.40332396082265, -45.612601784923626]}}, {"type": "Feature", "properties": {"norad_id": 67015, "name": "STARLINK-36093", "group": "last-30-days", "lat": -49.546258023993154, "lon": 129.84118018876842, "alt_km": 352.95830642488727, "timestamp": "2025-12-26T07:29:17.195792+00:00", "meta": {"OBJECT_NAME": "STARLINK-36093", "OBJECT_ID": "2025-293N", "EPOCH": "2025-12-25T22:00:01.999584", "MEAN_MOTION": 15.75060037, "ECCENTRICITY": 0.00034309, "INCLINATION": 69.9946, "RA_OF_ASC_NODE": 285.6639, "ARG_OF_PERICENTER": 266.3674, "MEAN_ANOMALY": 247.8689, "EPHEMERIS_TYPE": 0, "CLASSIFICATION_TYPE": "U", "NORAD_CAT_ID": 67015, "ELEMENT_SET_NO": 999, "REV_AT_EPOCH": 222, "BSTAR": -0.012755289, "MEAN_MOTION_DOT": -0.016889, "MEAN_MOTION_DDOT": 0}, "tle": {"line1": "1 67015U 25293N   25359.91668981 -.01688900  00000+0 -12755-1 0  9996", "line2": "2 67015  69.9946 285.6639 0003430 266.3674 247.8689 15.75060037  2221"}}, "geometry": {"type": "Point", "coordinates": [129.84118018876842, -49.546258023993154]}}, {"type": "Feature", "properties": {"norad_id": 67016, "name": "STARLINK-36120", "group": "last-30-days", "lat": -47.51613976449098, "lon": 127.99119354868274, "alt_km": 352.93161630987834, "timestamp": "2025-12-26T07:29:17.195802+00:00", "meta": {"OBJECT_NAME": "STARLINK-36120", "OBJECT_ID": "2025-293P", "EPOCH": "2025-12-25T22:00:01.999584", "MEAN_MOTION": 15.75082538, "ECCENTRICITY": 0.00034383, "INCLINATION": 69.9948, "RA_OF_ASC_NODE": 285.6669, "ARG_OF_PERICENTER": 268.3649, "MEAN_ANOMALY": 243.4672, "EPHEMERIS_TYPE": 0, "CLASSIFICATION_TYPE": "U", "NORAD_CAT_ID": 67016, "ELEMENT_SET_NO": 999, "REV_AT_EPOCH": 222, "BSTAR": -0.012758936, "MEAN_MOTION_DOT": -0.01690811, "MEAN_MOTION_DDOT": 0}, "tle": {"line1": "1 67016U 25293P   25359.91668981 -.01690811  00000+0 -12759-1 0  9995", "line2": "2 67016  69.9948 285.6669 0003438 268.3649 243.4672 15.75082538  2223"}}, "geometry": {"type": "Point", "coordinates": [127.99119354868274, -47.51613976449098]}}, {"type": "Feature", "properties": {"norad_id": 67017, "name": "STARLINK-35498", "group": "last-30-days", "lat": -51.456387881067535, "lon": 131.7574409365761, "alt_km": 352.995501048229, "timestamp": "2025-12-26T07:29:17.195814+00:00", "meta": {"OBJECT_NAME": "STARLINK-35498", "OBJECT_ID": "2025-293Q", "EPOCH": "2025-12-25T22:00:01.999584", "MEAN_MOTION": 15.7504526, "ECCENTRICITY": 0.00035178, "INCLINATION": 69.9944, "RA_OF_ASC_NODE": 285.6607, "ARG_OF_PERICENTER": 267.8899, "MEAN_ANOMALY": 248.6403, "EPHEMERIS_TYPE": 0, "CLASSIFICATION_TYPE": "U", "NORAD_CAT_ID": 67017, "ELEMENT_SET_NO": 999, "REV_AT_EPOCH": 242, "BSTAR": -0.012785665, "MEAN_MOTION_DOT": -0.01691572, "MEAN_MOTION_DDOT": 0}, "tle": {"line1": "1 67017U 25293Q   25359.91668981 -.01691572  00000+0 -12786-1 0  9991", "line2": "2 67017  69.9944 285.6607 0003517 267.8899 248.6403 15.75045260  2423"}}, "geometry": {"type": "Point", "coordinates": [131.7574409365761, -51.456387881067535]}}, {"type": "Feature", "properties": {"norad_id": 67018, "name": "STARLINK-36106", "group": "last-30-days", "lat": -53.34320029206463, "lon": 133.852302533314, "alt_km": 353.11986847431217, "timestamp": "2025-12-26T07:29:17.195824+00:00", "meta": {"OBJECT_NAME": "STARLINK-36106", "OBJECT_ID": "2025-293R", "EPOCH": "2025-12-25T22:00:01.999584", "MEAN_MOTION": 15.75024015, "ECCENTRICITY": 0.00033629, "INCLINATION": 69.9944, "RA_OF_ASC_NODE": 285.6577, "ARG_OF_PERICENTER": 266.8797, "MEAN_ANOMALY": 251.9586, "EPHEMERIS_TYPE": 0, "CLASSIFICATION_TYPE": "U", "NORAD_CAT_ID": 67018, "ELEMENT_SET_NO": 999, "REV_AT_EPOCH": 234, "BSTAR": -0.012756852, "MEAN_MOTION_DOT": -0.01686661, "MEAN_MOTION_DDOT": 0}, "tle": {"line1": "1 67018U 25293R   25359.91668981 -.01686661  00000+0 -12757-1 0  9993", "line2": "2 67018  69.9944 285.6577 0003362 266.8797 251.9586 15.75024015  2349"}}, "geometry": {"type": "Point", "coordinates": [133.852302533314, -53.34320029206463]}}, {"type": "Feature", "properties": {"norad_id": 67019, "name": "STARLINK-35688", "group": "last-30-days", "lat": -55.112339834595396, "lon": 136.0381356264176, "alt_km": 353.16230349380385, "timestamp": "2025-12-26T07:29:17.195835+00:00", "meta": {"OBJECT_NAME": "STARLINK-35688", "OBJECT_ID": "2025-293S", "EPOCH": "2025-12-25T22:00:01.999584", "MEAN_MOTION": 15.75014412, "ECCENTRICITY": 0.0003355, "INCLINATION": 69.9941, "RA_OF_ASC_NODE": 285.6545, "ARG_OF_PERICENTER": 266.8291, "MEAN_ANOMALY": 254.2111, "EPHEMERIS_TYPE": 0, "CLASSIFICATION_TYPE": "U", "NORAD_CAT_ID": 67019, "ELEMENT_SET_NO": 999, "REV_AT_EPOCH": 242, "BSTAR": -0.012789905, "MEAN_MOTION_DOT": -0.01689894, "MEAN_MOTION_DDOT": 0}, "tle": {"line1": "1 67019U 25293S   25359.91668981 -.01689894  00000+0 -12790-1 0  9992", "line2": "2 67019  69.9941 285.6545 0003355 266.8291 254.2111 15.75014412  2422"}}, "geometry": {"type": "Point", "coordinates": [136.0381356264176, -55.112339834595396]}}]}